CCSDS_OEM_VERS = 1.0
CREATION_DATE  = 2017-05-11T11:59:09
ORIGINATOR     = GMAT USER

META_START
OBJECT_NAME          = MOPSSat_alt_35785_km_RAAN_270_091
OBJECT_ID            = SatId
CENTER_NAME          = Earth
REF_FRAME            = EME2000
TIME_SYSTEM          = UTC
START_TIME           = 2017-01-01T00:00:00.000
USEABLE_START_TIME   = 2017-01-01T00:00:00.000
USEABLE_STOP_TIME    = 2017-01-02T00:00:00.000
STOP_TIME            = 2017-01-02T00:00:00.000
INTERPOLATION        = Lagrange
INTERPOLATION_DEGREE = 7 
META_STOP


                                                                                   

2017-01-01T00:36:40.000   6.698764309196058e+03  -4.119000366987047e+04   1.181159966147486e+03   3.017935521530953e+00   5.009984071620804e-01   5.321313662267375e-01
2017-01-01T00:36:50.000   6.728941826487533e+03  -4.118498240389163e+04   1.186480955436820e+03   3.017567773167677e+00   5.032547599889063e-01   5.320664627871989e-01
2017-01-01T00:37:00.000   6.759115658002582e+03  -4.117993857580829e+04   1.191801294229335e+03   3.017198373000892e+00   5.055108289245540e-01   5.320012680538938e-01
2017-01-01T00:37:10.000   6.789285787546146e+03  -4.117487218841292e+04   1.197120979669040e+03   3.016827321247016e+00   5.077666127226360e-01   5.319357820650478e-01
2017-01-01T00:37:20.000   6.819452198619057e+03  -4.116978324455951e+04   1.202440008846328e+03   3.016454618127024e+00   5.100221101140514e-01   5.318700048596905e-01
2017-01-01T00:37:30.000   6.849614874708696e+03  -4.116467174711804e+04   1.207758378849215e+03   3.016080263863110e+00   5.122773198287142e-01   5.318039364770671e-01
2017-01-01T00:37:40.000   6.879773799288774e+03  -4.115953769897319e+04   1.213076086763311e+03   3.015704258678604e+00   5.145322405955415e-01   5.317375769566227e-01
2017-01-01T00:37:50.000   6.909928955529859e+03  -4.115438110307675e+04   1.218393129620776e+03   3.015326602801800e+00   5.167868711208080e-01   5.316709263386783e-01
2017-01-01T00:38:00.000   6.940080326689519e+03  -4.114920196237830e+04   1.223709504469108e+03   3.014947296460873e+00   5.190412101173173e-01   5.316039846635346e-01
2017-01-01T00:38:10.000   6.970227895955649e+03  -4.114400027985258e+04   1.229025208343524e+03   3.014566339885906e+00   5.212952562926868e-01   5.315367519718277e-01
2017-01-01T00:38:20.000   7.000371647138211e+03  -4.113877605838031e+04   1.234340238388925e+03   3.014183733300137e+00   5.235490084010678e-01   5.314692283029864e-01
2017-01-01T00:38:30.000   7.030511563975747e+03  -4.113352930086745e+04   1.239654591737618e+03   3.013799476928711e+00   5.258024651912951e-01   5.314014136967755e-01
2017-01-01T00:38:40.000   7.060647630314425e+03  -4.112826001021470e+04   1.244968265540890e+03   3.013413570996434e+00   5.280556254202748e-01   5.313333081929008e-01
2017-01-01T00:38:50.000   7.090779829626434e+03  -4.112296818939906e+04   1.250281256884085e+03   3.013026015733755e+00   5.303084878169756e-01   5.312649118320626e-01
2017-01-01T00:39:00.000   7.120908145407511e+03  -4.111765384140692e+04   1.255593562856704e+03   3.012636811371858e+00   5.325610511121494e-01   5.311962246550918e-01
2017-01-01T00:39:10.000   7.151032561085284e+03  -4.111231696924938e+04   1.260905180536236e+03   3.012245958143791e+00   5.348133140314810e-01   5.311272467031476e-01
2017-01-01T00:39:20.000   7.181153060055032e+03  -4.110695757595762e+04   1.266216106994467e+03   3.011853456284124e+00   5.370652752982615e-01   5.310579780176582e-01
2017-01-01T00:39:30.000   7.211269625696334e+03  -4.110157566457862e+04   1.271526339300416e+03   3.011459306028634e+00   5.393169336346316e-01   5.309884186402642e-01
2017-01-01T00:39:40.000   7.241382241409112e+03  -4.109617123816877e+04   1.276835874526691e+03   3.011063507613839e+00   5.415682877642786e-01   5.309185686127376e-01
2017-01-01T00:39:50.000   7.271490890630756e+03  -4.109074429979208e+04   1.282144709752503e+03   3.010666061276865e+00   5.438193364137139e-01   5.308484279769570e-01
2017-01-01T00:40:00.000   7.301595556871248e+03  -4.108529485251228e+04   1.287452842069870e+03   3.010266967254874e+00   5.460700783149037e-01   5.307779967748066e-01
2017-01-01T00:40:10.000   7.331696223621896e+03  -4.107982289940998e+04   1.292760268567512e+03   3.009866225786307e+00   5.483205121984405e-01   5.307072750483974e-01
2017-01-01T00:40:20.000   7.361792874751520e+03  -4.107432844350839e+04   1.298066986400718e+03   3.009463837105455e+00   5.505706368231661e-01   5.306362628391083e-01
2017-01-01T00:40:30.000   7.391885494026254e+03  -4.106881148786283e+04   1.303372992706666e+03   3.009059801449015e+00   5.528204509402694e-01   5.305649601887412e-01
2017-01-01T00:40:40.000   7.421974065291076e+03  -4.106327203552713e+04   1.308678284636443e+03   3.008654119053624e+00   5.550699533068606e-01   5.304933671390883e-01
2017-01-01T00:40:50.000   7.452058571766333e+03  -4.105771008968301e+04   1.313982859230996e+03   3.008246790165334e+00   5.573191426333735e-01   5.304214837336034e-01
2017-01-01T00:41:00.000   7.482138996751259e+03  -4.105212565351087e+04   1.319286713545185e+03   3.007837815030156e+00   5.595680176361670e-01   5.303493100157323e-01
2017-01-01T00:41:10.000   7.512215323442399e+03  -4.104651873022298e+04   1.324589844615761e+03   3.007427193896480e+00   5.618165770239472e-01   5.302768460293399e-01
2017-01-01T00:41:20.000   7.542287535414279e+03  -4.104088932297636e+04   1.329892249546126e+03   3.007014927008704e+00   5.640648195337045e-01   5.302040918175889e-01
2017-01-01T00:41:30.000   7.572355616222685e+03  -4.103523743494431e+04   1.335193925436376e+03   3.006601014612468e+00   5.663127439010539e-01   5.301310474238591e-01
2017-01-01T00:41:40.000   7.602419549496147e+03  -4.102956306929985e+04   1.340494869399434e+03   3.006185456953446e+00   5.685603488670751e-01   5.300577128915366e-01
2017-01-01T00:41:50.000   7.632479318900258e+03  -4.102386622922098e+04   1.345795078554760e+03   3.005768254277718e+00   5.708076331756440e-01   5.299840882640794e-01
2017-01-01T00:42:00.000   7.662534908121092e+03  -4.101814691789495e+04   1.351094550025426e+03   3.005349406832101e+00   5.730545955721930e-01   5.299101735850755e-01
2017-01-01T00:42:10.000   7.692586300829258e+03  -4.101240513852512e+04   1.356393280931777e+03   3.004928914864641e+00   5.753012348010237e-01   5.298359688983293e-01
2017-01-01T00:42:20.000   7.722633480662821e+03  -4.100664089433296e+04   1.361691268388420e+03   3.004506778624758e+00   5.775475496040313e-01   5.297614742478881e-01
2017-01-01T00:42:30.000   7.752676431192244e+03  -4.100085418856634e+04   1.366988509498043e+03   3.004082998363860e+00   5.797935387180833e-01   5.296866896781488e-01
2017-01-01T00:42:40.000   7.782715136011549e+03  -4.099504502448130e+04   1.372285001367491e+03   3.003657574333997e+00   5.820392008818335e-01   5.296116152336233e-01
2017-01-01T00:42:50.000   7.812749578342931e+03  -4.098921340542078e+04   1.377580741038044e+03   3.003230506793642e+00   5.842845348061664e-01   5.295362509599554e-01
2017-01-01T00:43:00.000   7.842779741515998e+03  -4.098335933471979e+04   1.382875725569928e+03   3.002801796000729e+00   5.865295392100225e-01   5.294605969026949e-01
2017-01-01T00:43:10.000   7.872805608789520e+03  -4.097748281574030e+04   1.388169952010873e+03   3.002371442215227e+00   5.887742128070726e-01   5.293846531077487e-01
2017-01-01T00:43:20.000   7.902827164042159e+03  -4.097158385173648e+04   1.393463417517915e+03   3.001939445689247e+00   5.910185543573577e-01   5.293084196196396e-01
2017-01-01T00:43:30.000   7.932844391083473e+03  -4.096566244598888e+04   1.398756119235904e+03   3.001505806676900e+00   5.932625626157774e-01   5.292318964832406e-01
2017-01-01T00:43:40.000   7.962857273810111e+03  -4.095971860177463e+04   1.404048054325048e+03   3.001070525432080e+00   5.955062363437704e-01   5.291550837433886e-01
2017-01-01T00:43:50.000   7.992865795816540e+03  -4.095375232244115e+04   1.409339219892273e+03   3.000633602213889e+00   5.977495742802107e-01   5.290779814458373e-01
2017-01-01T00:44:00.000   8.022869940684239e+03  -4.094776361135218e+04   1.414629613042215e+03   3.000195037282672e+00   5.999925751630278e-01   5.290005896365618e-01
2017-01-01T00:44:10.000   8.052869691981469e+03  -4.094175247188663e+04   1.419919230877183e+03   2.999754830899934e+00   6.022352377291916e-01   5.289229083617403e-01
2017-01-01T00:44:20.000   8.082865032975423e+03  -4.093571890749933e+04   1.425208070446399e+03   2.999312983332786e+00   6.044775606931909e-01   5.288449376685409e-01
2017-01-01T00:44:30.000   8.112855947020188e+03  -4.092966292164024e+04   1.430496128814409e+03   2.998869494848041e+00   6.067195427760407e-01   5.287666776040792e-01
2017-01-01T00:44:40.000   8.142842417403868e+03  -4.092358451778594e+04   1.435783403034123e+03   2.998424365714510e+00   6.089611826938488e-01   5.286881282158225e-01
2017-01-01T00:44:50.000   8.172824428025288e+03  -4.091748369930268e+04   1.441069890266139e+03   2.997977596192968e+00   6.112024792084056e-01   5.286092895498199e-01
2017-01-01T00:45:00.000   8.202801962717271e+03  -4.091136046958304e+04   1.446355587659414e+03   2.997529186546172e+00   6.134434310765946e-01   5.285301616524715e-01
2017-01-01T00:45:10.000   8.232775005399701e+03  -4.090521483201550e+04   1.451640492378259e+03   2.997079137036629e+00   6.156840370618362e-01   5.284507445701320e-01
2017-01-01T00:45:20.000   8.262743539690760e+03  -4.089904679006081e+04   1.456924601533789e+03   2.996627447932192e+00   6.179242959050233e-01   5.283710383500995e-01
2017-01-01T00:45:30.000   8.292707549195749e+03  -4.089285634719632e+04   1.462207912234845e+03   2.996174119501970e+00   6.201642063461146e-01   5.282910430398946e-01
2017-01-01T00:45:40.000   8.322667017506863e+03  -4.088664350691448e+04   1.467490421587964e+03   2.995719152016236e+00   6.224037671241167e-01   5.282107586872421e-01
